{
  "type": "FeatureCollection",
  "features": [
    {
      "type": "Feature",
      "properties": {
        "norad_id": 34556,
        "name": "COSMOS 2251 DEB",
        "group": "cosmos-2251-debris",
        "lat": 20.07371874519098,
        "lon": 119.95331282916005,
        "alt_km": 639.9475298504185,
        "timestamp": "2025-12-18T07:01:54.984098+00:00",
        "meta_object_name": "COSMOS 2251 DEB",
        "meta_object_id": "1993-036US",
        "meta_epoch": "2025-12-17T10:04:25.620672",
        "meta_mean_motion": 14.77949388,
        "meta_eccentricity": 0.00071822,
        "meta_inclination": 74.0156,
        "meta_ra_of_asc_node": 115.6566,
        "meta_arg_of_pericenter": 175.9124,
        "meta_mean_anomaly": 240.7909,
        "meta_ephemeris_type": 0,
        "meta_classification_type": "U",
        "meta_norad_cat_id": 34556,
        "meta_element_set_no": 999,
        "meta_rev_at_epoch": 88398,
        "meta_bstar": 0.0016995795,
        "meta_mean_motion_dot": 0.00012245,
        "meta_mean_motion_ddot": 0,
        "tle_line1": "1 34556U 93036US  25351.41974098  .00012245  00000+0  16996-2 0  9998",
        "tle_line2": "2 34556  74.0156 115.6566 0007182 175.9124 240.7909 14.77949388883982"
      },
      "geometry": {
        "type": "Point",
        "coordinates": [
          119.95331282916005,
          20.07371874519098
        ]
      }
    },
    {
      "type": "Feature",
      "properties": {
        "norad_id": 34560,
        "name": "COSMOS 2251 DEB",
        "group": "cosmos-2251-debris",
        "lat": 18.230744302111155,
        "lon": -54.102816798614455,
        "alt_km": 647.5944204185816,
        "timestamp": "2025-12-18T07:01:54.984107+00:00",
        "meta_object_name": "COSMOS 2251 DEB",
        "meta_object_id": "1993-036UW",
        "meta_epoch": "2025-12-17T15:41:08.816928",
        "meta_mean_motion": 14.72264395,
        "meta_eccentricity": 0.00143221,
        "meta_inclination": 74.0157,
        "meta_ra_of_asc_node": 132.5599,
        "meta_arg_of_pericenter": 214.2308,
        "meta_mean_anomaly": 159.1503,
        "meta_ephemeris_type": 0,
        "meta_classification_type": "U",
        "meta_norad_cat_id": 34560,
        "meta_element_set_no": 999,
        "meta_rev_at_epoch": 88324,
        "meta_bstar": 0.0016251036,
        "meta_mean_motion_dot": 0.00010264,
        "meta_mean_motion_ddot": 0,
        "tle_line1": "1 34560U 93036UW  25351.65357427  .00010264  00000+0  16251-2 0  9993",
        "tle_line2": "2 34560  74.0157 132.5599 0014322 214.2308 159.1503 14.72264395883242"
      },
      "geometry": {
        "type": "Point",
        "coordinates": [
          -54.102816798614455,
          18.230744302111155
        ]
      }
    },
    {
      "type": "Feature",
      "properties": {
        "norad_id": 34563,
        "name": "COSMOS 2251 DEB",
        "group": "cosmos-2251-debris",
        "lat": 44.857204404243575,
        "lon": -3.2070098715994626,
        "alt_km": 741.7183334718284,
        "timestamp": "2025-12-18T07:01:54.984117+00:00",
        "meta_object_name": "COSMOS 2251 DEB",
        "meta_object_id": "1993-036UZ",
        "meta_epoch": "2025-12-17T13:57:54.362016",
        "meta_mean_motion": 14.46524783,
        "meta_eccentricity": 0.00138937,
        "meta_inclination": 74.0368,
        "meta_ra_of_asc_node": 194.668,
        "meta_arg_of_pericenter": 288.352,
        "meta_mean_anomaly": 102.8105,
        "meta_ephemeris_type": 0,
        "meta_classification_type": "U",
        "meta_norad_cat_id": 34563,
        "meta_element_set_no": 999,
        "meta_rev_at_epoch": 88267,
        "meta_bstar": 0.00035442209,
        "meta_mean_motion_dot": 1.251e-05,
        "meta_mean_motion_ddot": 0,
        "tle_line1": "1 34563U 93036UZ  25351.58187919  .00001251  00000+0  35442-3 0  9995",
        "tle_line2": "2 34563  74.0368 194.6680 0013893 288.3520 102.8105 14.46524783882679"
      },
      "geometry": {
        "type": "Point",
        "coordinates": [
          -3.2070098715994626,
          44.857204404243575
        ]
      }
    },
    {
      "type": "Feature",
      "properties": {
        "norad_id": 34564,
        "name": "COSMOS 2251 DEB",
        "group": "cosmos-2251-debris",
        "lat": 23.552936474568916,
        "lon": 40.567900552561,
        "alt_km": 768.9848909365037,
        "timestamp": "2025-12-18T07:01:54.984127+00:00",
        "meta_object_name": "COSMOS 2251 DEB",
        "meta_object_id": "1993-036VA",
        "meta_epoch": "2025-12-17T18:59:10.894848",
        "meta_mean_motion": 14.40699096,
        "meta_eccentricity": 0.00192074,
        "meta_inclination": 74.0319,
        "meta_ra_of_asc_node": 228.6662,
        "meta_arg_of_pericenter": 331.8563,
        "meta_mean_anomaly": 101.442,
        "meta_ephemeris_type": 0,
        "meta_classification_type": "U",
        "meta_norad_cat_id": 34564,
        "meta_element_set_no": 999,
        "meta_rev_at_epoch": 88079,
        "meta_bstar": 0.00020577131,
        "meta_mean_motion_dot": 6.32e-06,
        "meta_mean_motion_ddot": 0,
        "tle_line1": "1 34564U 93036VA  25351.79109832  .00000632  00000+0  20577-3 0  9992",
        "tle_line2": "2 34564  74.0319 228.6662 0019207 331.8563 101.4420 14.40699096880790"
      },
      "geometry": {
        "type": "Point",
        "coordinates": [
          40.567900552561,
          23.552936474568916
        ]
      }
    },
    {
      "type": "Feature",
      "properties": {
        "norad_id": 34567,
        "name": "COSMOS 2251 DEB",
        "group": "cosmos-2251-debris",
        "lat": -46.05698684455784,
        "lon": -15.941423854336835,
        "alt_km": 765.3281379688169,
        "timestamp": "2025-12-18T07:01:54.984137+00:00",
        "meta_object_name": "COSMOS 2251 DEB",
        "meta_object_id": "1993-036VD",
        "meta_epoch": "2025-12-17T16:33:03.664800",
        "meta_mean_motion": 14.24022009,
        "meta_eccentricity": 0.00743159,
        "meta_inclination": 74.0404,
        "meta_ra_of_asc_node": 147.8713,
        "meta_arg_of_pericenter": 221.0774,
        "meta_mean_anomaly": 155.2698,
        "meta_ephemeris_type": 0,
        "meta_classification_type": "U",
        "meta_norad_cat_id": 34567,
        "meta_element_set_no": 999,
        "meta_rev_at_epoch": 87195,
        "meta_bstar": 0.00020439297,
        "meta_mean_motion_dot": 4.57e-06,
        "meta_mean_motion_ddot": 0,
        "tle_line1": "1 34567U 93036VD  25351.68962575  .00000457  00000+0  20439-3 0  9996",
        "tle_line2": "2 34567  74.0404 147.8713 0074315 221.0774 155.2698 14.24022009871950"
      },
      "geometry": {
        "type": "Point",
        "coordinates": [
          -15.941423854336835,
          -46.05698684455784
        ]
      }
    },
    {
      "type": "Feature",
      "properties": {
        "norad_id": 34569,
        "name": "COSMOS 2251 DEB",
        "group": "cosmos-2251-debris",
        "lat": 47.72023819611292,
        "lon": -153.49733053477132,
        "alt_km": 711.5236999214176,
        "timestamp": "2025-12-18T07:01:54.984148+00:00",
        "meta_object_name": "COSMOS 2251 DEB",
        "meta_object_id": "1993-036VF",
        "meta_epoch": "2025-12-17T17:54:36.756000",
        "meta_mean_motion": 14.24765047,
        "meta_eccentricity": 0.01575342,
        "meta_inclination": 73.9892,
        "meta_ra_of_asc_node": 189.0832,
        "meta_arg_of_pericenter": 16.3301,
        "meta_mean_anomaly": 109.8446,
        "meta_ephemeris_type": 0,
        "meta_classification_type": "U",
        "meta_norad_cat_id": 34569,
        "meta_element_set_no": 999,
        "meta_rev_at_epoch": 87039,
        "meta_bstar": 0.00038364944,
        "meta_mean_motion_dot": 9.91e-06,
        "meta_mean_motion_ddot": 0,
        "tle_line1": "1 34569U 93036VF  25351.74625875  .00000991  00000+0  38365-3 0  9994",
        "tle_line2": "2 34569  73.9892 189.0832 0157534  16.3301 109.8446 14.24765047870396"
      },
      "geometry": {
        "type": "Point",
        "coordinates": [
          -153.49733053477132,
          47.72023819611292
        ]
      }
    },
    {
      "type": "Feature",
      "properties": {
        "norad_id": 34570,
        "name": "COSMOS 2251 DEB",
        "group": "cosmos-2251-debris",
        "lat": -23.02802855811919,
        "lon": 35.65056478093281,
        "alt_km": 953.5634312209495,
        "timestamp": "2025-12-18T07:01:54.984158+00:00",
        "meta_object_name": "COSMOS 2251 DEB",
        "meta_object_id": "1993-036VG",
        "meta_epoch": "2025-12-17T14:47:22.949376",
        "meta_mean_motion": 13.99827814,
        "meta_eccentricity": 0.01902686,
        "meta_inclination": 73.9566,
        "meta_ra_of_asc_node": 209.802,
        "meta_arg_of_pericenter": 91.1991,
        "meta_mean_anomaly": 301.5791,
        "meta_ephemeris_type": 0,
        "meta_classification_type": "U",
        "meta_norad_cat_id": 34570,
        "meta_element_set_no": 999,
        "meta_rev_at_epoch": 85669,
        "meta_bstar": 0.00040162603,
        "meta_mean_motion_dot": 6.66e-06,
        "meta_mean_motion_ddot": 0,
        "tle_line1": "1 34570U 93036VG  25351.61623784  .00000666  00000+0  40163-3 0  9997",
        "tle_line2": "2 34570  73.9566 209.8020 0190268  91.1991 301.5791 13.99827814856696"
      },
      "geometry": {
        "type": "Point",
        "coordinates": [
          35.65056478093281,
          -23.02802855811919
        ]
      }
    }
  ]
}